NORAD_CAT_ID,OBJECT_NAME,OBJECT_TYPE,EPOCH,MEAN_MOTION,ECCENTRICITY,INCLINATION,RA_OF_ASC_NODE,ARG_OF_PERICENTER,MEAN_ANOMALY,BSTAR,MEAN_MOTION_DOT,MEAN_MOTION_DDOT,TLE_LINE0,TLE_LINE1,TLE_LINE2,SEMIMAJOR_AXIS,PERIOD,APOGEE,PERIGEE,DECAYED
54004.0,STARLINK-5129,PAYLOAD,2023-08-31 22:19:34,15.08848916,1.35e-05,53.2189,27.2535,188.5674,171.5316,7.5491e-05,9.15e-06,0.0,0 STARLINK-5129,1 54004U 22125AS  23243.93026144  .00000915  00000-0  75491-4 0  9993,2 54004  53.2189  27.2535 0000135 188.5674 171.5316 15.08848916 50510,6917.853,95.437,539.812,539.625,0.0
54004.0,STARLINK-5129,PAYLOAD,2023-09-01 03:05:44,15.08843732,2.7e-06,53.2186,26.3627,198.8413,161.2578,1.8899e-05,1.4e-07,0.0,0 STARLINK-5129,1 54004U 22125AS  23244.12898625  .00000014  00000-0  18899-4 0  9995,2 54004  53.2186  26.3627 0000027 198.8413 161.2578 15.08843732 50544,6917.869,95.437,539.753,539.715,0.0
54004.0,STARLINK-5129,PAYLOAD,2023-09-01 18:59:35,15.08847324,0.0001207,53.2164,23.3868,70.3748,289.7374,0.00011409,1.529e-05,0.0,0 STARLINK-5129,1 54004U 22125AS  23244.79138706  .00001529  00000-0  11409-3 0  9996,2 54004  53.2164  23.3868 0001207  70.3748 289.7374 15.08847324 50596,6917.858,95.437,540.558,538.888,0.0
54004.0,STARLINK-5129,PAYLOAD,2023-09-02 09:18:04,15.08834884,5.42e-05,53.2185,20.7099,112.0596,248.0454,5.1235e-05,5.28e-06,0.0,0 STARLINK-5129,1 54004U 22125AS  23245.38755258  .00000528  00000-0  51235-4 0  9999,2 54004  53.2185  20.7099 0000542 112.0596 248.0454 15.08834884 50732,6917.896,95.438,540.136,539.386,0.0
54004.0,STARLINK-5129,PAYLOAD,2023-09-02 12:28:50,15.08839783,0.0001217,53.2166,20.1158,90.708,269.4051,5.5307e-05,5.92e-06,0.0,0 STARLINK-5129,1 54004U 22125AS  23245.52003227  .00000592  00000-0  55307-4 0  9992,2 54004  53.2166  20.1158 0001217  90.7080 269.4051 15.08839783 50701,6917.881,95.438,540.588,538.904,0.0
54004.0,STARLINK-5129,PAYLOAD,2023-09-02 20:25:45,15.08853321,0.0001306,53.217,18.6283,91.8782,268.2359,0.00038044,5.774e-05,0.0,0 STARLINK-5129,1 54004U 22125AS  23245.85122667  .00005774  00000-0  38044-3 0  9993,2 54004  53.2170  18.6283 0001306  91.8782 268.2359 15.08853321 50754,6917.84,95.437,540.608,538.801,0.0
54004.0,STARLINK-5129,PAYLOAD,2023-09-03 10:44:14,15.08841616,0.0001285,53.2177,15.9527,88.7435,271.3704,0.00012434,1.692e-05,0.0,0 STARLINK-5129,1 54004U 22125AS  23246.44739154  .00001692  00000-0  12434-3 0  9994,2 54004  53.2177  15.9527 0001285  88.7435 271.3704 15.08841616 50841,6917.875,95.437,540.629,538.852,0.0
54004.0,STARLINK-5129,PAYLOAD,2023-09-03 15:30:23,15.08849114,0.0002018,53.2173,15.0628,91.2832,268.8391,0.00019809,2.867e-05,0.0,0 STARLINK-5129,1 54004U 22125AS  23246.64610899  .00002867  00000-0  19809-3 0  9998,2 54004  53.2173  15.0628 0002018  91.2832 268.8391 15.08849114 50928,6917.853,95.437,541.114,538.322,0.0
54004.0,STARLINK-5129,PAYLOAD,2023-09-04 08:59:38,15.08830176,0.0001348,53.217,11.7895,100.1959,259.9186,-7.0283e-05,-1.406e-05,0.0,0 STARLINK-5129,1 54004U 22125AS  23247.37475647 -.00001406  00000-0 -70283-4 0  9993,2 54004  53.2170  11.7895 0001348 100.1959 259.9186 15.08830176 51033,6917.91,95.438,540.708,538.843,0.0
54004.0,STARLINK-5129,PAYLOAD,2023-09-05 00:53:30,15.08836498,0.0001399,53.2183,8.8163,98.9379,261.1771,0.00017352,2.474e-05,0.0,0 STARLINK-5129,1 54004U 22125AS  23248.03715756  .00002474  00000-0  17352-3 0  9996,2 54004  53.2183   8.8163 0001399  98.9379 261.1771 15.08836498 51137,6917.891,95.438,540.724,538.788,0.0
54004.0,STARLINK-5129,PAYLOAD,2023-09-06 00:44:17,15.08846794,0.0001262,53.2174,4.3561,96.9024,263.2112,0.00037691,5.717e-05,0.0,0 STARLINK-5129,1 54004U 22125AS  23249.03075714  .00005717  00000-0  37691-3 0  9991,2 54004  53.2174   4.3561 0001262  96.9024 263.2112 15.08846794 51237,6917.86,95.437,540.598,538.852,0.0
54004.0,STARLINK-5129,PAYLOAD,2023-09-06 19:48:54,15.08856434,0.0001242,53.2175,0.7877,95.5776,264.5358,0.0004184,6.38e-05,0.0,0 STARLINK-5129,1 54004U 22125AS  23249.82563160  .00006380  00000-0  41840-3 0  9993,2 54004  53.2175   0.7877 0001242  95.5776 264.5358 15.08856434 51356,6917.83,95.437,540.554,538.836,0.0
54004.0,STARLINK-5129,PAYLOAD,2023-09-07 00:35:03,15.08849084,3.73e-05,53.2176,359.8951,94.9734,265.1301,0.00019012,2.74e-05,0.0,0 STARLINK-5129,1 54004U 22125AS  23250.02434920  .00002740  00000-0  19012-3 0  9990,2 54004  53.2176 359.8951 0000373  94.9734 265.1301 15.08849084 51436,6917.853,95.437,539.976,539.46,0.0
54004.0,STARLINK-5129,PAYLOAD,2023-09-07 08:32:00,15.08841073,0.000147,53.2174,358.4092,85.9603,274.1558,7.4686e-05,9.01e-06,0.0,0 STARLINK-5129,1 54004U 22125AS  23250.35555663  .00000901  00000-0  74686-4 0  9990,2 54004  53.2174 358.4092 0001470  85.9603 274.1558 15.08841073 51488,6917.877,95.437,540.759,538.725,0.0
54004.0,STARLINK-5129,PAYLOAD,2023-09-07 19:39:41,15.08848457,0.0001778,53.2161,356.3272,80.8486,279.2708,0.00040926,6.233e-05,0.0,0 STARLINK-5129,1 54004U 22125AS  23250.81923605  .00006233  00000-0  40926-3 0  9999,2 54004  53.2161 356.3272 0001778  80.8486 279.2708 15.08848457 51504,6917.855,95.437,540.95,538.49,0.0
54004.0,STARLINK-5129,PAYLOAD,2023-09-08 00:25:51,15.08834621,6.37e-05,53.2178,355.4351,99.5884,260.518,-7.3824e-05,-1.462e-05,0.0,0 STARLINK-5129,1 54004U 22125AS  23251.01795450 -.00001462  00000-0 -73824-4 0  9992,2 54004  53.2178 355.4351 0000637  99.5884 260.5180 15.08834621 51585,6917.897,95.438,540.203,539.321,0.0
54004.0,STARLINK-5129,PAYLOAD,2023-09-08 13:08:56,15.08839302,0.0001249,53.2185,353.0597,72.5793,287.5336,0.00040694,6.194e-05,0.0,0 STARLINK-5129,1 54004U 22125AS  23251.54787925  .00006194  00000-0  40694-3 0  9991,2 54004  53.2185 353.0597 0001249  72.5793 287.5336 15.08839302 51616,6917.883,95.438,540.612,538.883,0.0
54004.0,STARLINK-5129,PAYLOAD,2023-09-08 16:19:42,15.08850202,0.0001382,53.2165,352.4614,86.5923,273.5227,0.00065234,0.00010112,0.0,0 STARLINK-5129,1 54004U 22125AS  23251.68035718  .00010112  00000-0  65234-3 0  9994,2 54004  53.2165 352.4614 0001382  86.5923 273.5227 15.08850202 51688,6917.849,95.437,540.67,538.758,0.0
54004.0,STARLINK-5129,PAYLOAD,2023-09-09 00:16:38,15.08841962,0.0001455,53.2162,350.9747,84.4889,275.627,0.00058387,9.017e-05,0.0,0 STARLINK-5129,1 54004U 22125AS  23252.01156084  .00009017  00000-0  58387-3 0  9995,2 54004  53.2162 350.9747 0001455  84.4889 275.6270 15.08841962 51734,6917.874,95.437,540.746,538.733,0.0
54004.0,STARLINK-5129,PAYLOAD,2023-09-09 12:59:44,15.08842572,0.0001517,53.2166,348.5945,98.5695,261.547,0.00038707,5.878e-05,0.0,0 STARLINK-5129,1 54004U 22125AS  23252.54148208  .00005878  00000-0  38707-3 0  9997,2 54004  53.2166 348.5945 0001517  98.5695 261.5470 15.08842572 51768,6917.873,95.437,540.787,538.688,0.0
54004.0,STARLINK-5129,PAYLOAD,2023-09-09 16:10:30,15.08841845,0.0001554,53.2168,347.9997,97.5156,262.6013,0.00037239,5.644e-05,0.0,0 STARLINK-5129,1 54004U 22125AS  23252.67396223  .00005644  00000-0  37239-3 0  9993,2 54004  53.2168 347.9997 0001554  97.5156 262.6013 15.08841845 51837,6917.875,95.437,540.815,538.665,0.0
54004.0,STARLINK-5129,PAYLOAD,2023-09-10 12:50:30,15.08846245,0.0001588,53.2185,344.1326,99.6574,260.4597,0.00026321,3.904e-05,0.0,0 STARLINK-5129,1 54004U 22125AS  23253.53508068  .00003904  00000-0  26321-3 0  9998,2 54004  53.2185 344.1326 0001588  99.6574 260.4597 15.08846245 51916,6917.861,95.437,540.825,538.628,0.0
54004.0,STARLINK-5129,PAYLOAD,2023-09-11 09:30:31,15.08838796,0.0001559,53.2184,340.2669,101.0994,259.0173,6.8641e-05,8.05e-06,0.0,0 STARLINK-5129,1 54004U 22125AS  23254.39620307  .00000805  00000-0  68641-4 0  9993,2 54004  53.2184 340.2669 0001559 101.0994 259.0173 15.08838796 52090,6917.884,95.438,540.828,538.671,0.0
54004.0,STARLINK-5129,PAYLOAD,2023-09-11 12:41:18,15.08843974,0.0001403,53.2175,339.675,84.5985,275.5167,0.00014155,1.966e-05,0.0,0 STARLINK-5129,1 54004U 22125AS  23254.52868241  .00001966  00000-0  14155-3 0  9998,2 54004  53.2175 339.6750 0001403  84.5985 275.5167 15.08843974 52063,6917.868,95.437,540.704,538.763,0.0
54004.0,STARLINK-5129,PAYLOAD,2023-09-12 10:56:41,15.08847756,0.0001383,53.2173,335.512,79.9518,280.163,0.00016059,2.269e-05,0.0,0 STARLINK-5129,1 54004U 22125AS  23255.45603951  .00002269  00000-0  16059-3 0  9998,2 54004  53.2173 335.5120 0001383  79.9518 280.1630 15.08847756 52254,6917.857,95.437,540.678,538.765,0.0
54004.0,STARLINK-5129,PAYLOAD,2023-09-12 15:42:50,15.08855706,0.0001423,53.2176,334.6198,80.1805,279.9348,0.00032488,4.888e-05,0.0,0 STARLINK-5129,1 54004U 22125AS  23255.65475599  .00004888  00000-0  32488-3 0  9998,2 54004  53.2176 334.6198 0001423  80.1805 279.9348 15.08855706 52234,6917.832,95.437,540.682,538.713,0.0
54004.0,STARLINK-5129,PAYLOAD,2023-09-13 10:47:28,15.0885043,0.0001434,53.217,331.052,82.9531,277.1624,0.00018782,2.703e-05,0.0,0 STARLINK-5129,1 54004U 22125AS  23256.44963543  .00002703  00000-0  18782-3 0  9992,2 54004  53.2170 331.0520 0001434  82.9531 277.1624 15.08850430 52355,6917.849,95.437,540.706,538.721,0.0
54004.0,STARLINK-5129,PAYLOAD,2023-09-13 13:58:14,15.08855858,0.0001513,53.2174,330.4574,88.445,271.6715,0.0003049,4.57e-05,0.0,0 STARLINK-5129,1 54004U 22125AS  23256.58211286  .00004570  00000-0  30490-3 0  9991,2 54004  53.2174 330.4574 0001513  88.4450 271.6715 15.08855858 52427,6917.832,95.437,540.744,538.65,0.0
54004.0,STARLINK-5129,PAYLOAD,2023-09-13 21:55:11,15.08811239,0.0001379,53.2167,328.9705,76.4118,283.7028,-0.0007749,-0.00012589,0.0,0 STARLINK-5129,1 54004U 22125AS  23256.91332455 -.00012589  00000-0 -77490-3 0  9992,2 54004  53.2167 328.9705 0001379  76.4118 283.7028 15.08811239 52421,6917.968,95.439,540.787,538.879,0.0
54004.0,STARLINK-5129,PAYLOAD,2023-09-14 10:38:16,15.08813176,0.0001224,53.2166,326.5912,79.1465,280.9665,-0.00043634,-7.22e-05,0.0,0 STARLINK-5129,1 54004U 22125AS  23257.44325166 -.00007220  00000-0 -43634-3 0  9991,2 54004  53.2166 326.5912 0001224  79.1465 280.9665 15.08813176 52550,6917.962,95.439,540.674,538.981,0.0
